CSS (TIANHE-1)
1 48274U 21035A   25175.11115182  .00017894  00000-0  22496-3 0  9991
2 48274  41.4650 338.6281 0004646 179.4678 180.6166 15.59247196237234
FENGYUN-4B
1 48808U 21047A   25174.98655909 -.00000327  00000-0  00000+0 0  9994
2 48808   0.0209  24.2754 0002575 299.6019  48.3689  1.00267201 14967
TUBIN
1 48900U 21059X   25175.14585554  .00031608  00000-0  36738-3 0  9993
2 48900  97.6744 345.5694 0004084 168.5142 191.6209 15.61680903222316
LEDSAT
1 49069U 21073D   25175.17206842  .00040484  00000-0  45348-3 0  9998
2 49069  97.3894 257.3379 0007538  29.7466 330.4219 15.62563034213714
CUTE-LASP
1 49263U 21088D   25174.65150770  .00009839  00000-0  19378-3 0  9993
2 49263  97.4515 251.3181 0008392 180.1295 179.9954 15.47407452206603
JILIN-01 GAOFEN 2F
1 49338U 21097A   25175.15262264  .00002745  13482-8  19832-3 0  9994
2 49338  97.6313 299.2209 0020041   8.4725 351.6835 15.03973255197990
TEIKYOSAT-4 (OORURI)
1 49396U 21102B   25174.55509177  .00001081  00000-0  74685-4 0  9999
2 49396  97.4093 212.4790 0014242  86.5630 273.7227 15.07693406198651
Z-SAT
1 49399U 21102E   25175.15449838  .00002528  00000-0  14018-3 0  9996
2 49399  97.3790 216.2425 0019406  57.1983 303.1115 15.14517396199180
KOSEN-1
1 49402U 21102H   25174.55777039  .00004378  00000-0  20302-3 0  9999
2 49402  97.3698 219.1845 0016581  36.1147 324.1205 15.20456751199413
CAMSAT XW-3 (CAS-9)
1 50466U 21131B   25175.20542939  .00000329  00000-0  11645-3 0  9997
2 50466  98.5107 264.4868 0005456  94.0923 266.0889 14.40829496183556
SICH-2-1 (SICH-2-30)
1 51030U 22002AY  25175.17200643  .00047588  00000-0  43941-3 0  9994
2 51030  97.3336 252.5446 0004735 133.0677 227.0981 15.67440519191817
VZLUSAT-2
1 51085U 22002DF  25175.18748744  .00030791  00000-0  40813-3 0  9997
2 51085  97.3329 248.4950 0006864 141.3785 218.7963 15.58197718191558
INSPIRESAT-1
1 51657U 22013B   25174.36338621  .00019525  00000-0  40173-3 0  9993
2 51657  97.4883 204.3636 0003861 283.2304  76.8514 15.45990222186510
GOES-18
1 51850U 22021A   25175.18794691  .00000099  00000-0  00000+0 0  9998
2 51850   0.0464 158.3867 0000288  44.3988   0.4550  1.00270327 12219
MERIDIAN-10
1 52145U 22030A   25174.55901971  .00000262  00000-0  00000+0 0  9999
2 52145  62.6606 178.5589 6744437 273.3832  17.7729  2.00601655 23824
BRO-7
1 52174U 22033T   25162.76230045  .11393183  24806-5  44250-3 0  9994
2 52174  97.2708 262.3985 0016745 266.7450  93.1935 16.42172300179386
BRO-6
1 52422U 22047AE  25175.19533073  .00005674  00000-0  16364-3 0  9996
2 52422  97.3654 258.4873 0003652 283.2305  76.8531 15.36106634175982
CONNECTA-T1
1 52739U 22057H   25174.85632439  .00027015  00000-0  41450-3 0  9993
2 52739  97.6115 315.4492 0003785 268.4748  91.6072 15.54271951171348
PLATFORM-1
1 52770U 22057AQ  25174.38715443  .00089064  00000-0  79504-3 0  9996
2 52770  97.6054 319.7114 0005070 238.0492 122.0275 15.68123026171620
STEP CUBELAB-II
1 52897U 22065D   25175.20072339  .00000565  00000-0  12103-3 0  9998
2 52897  98.1728 316.5351 0009936  70.6600 289.5675 14.62390253159167
RANDEV
1 52898U 22065E   25175.15169830  .00000634  00000-0  13372-3 0  9992
2 52898  98.1716 316.6925 0009266  72.1028 288.1183 14.62708017158899
SNUGLITE-II
1 52899U 22065F   25174.85048776  .00000694  00000-0  14386-3 0  9996
2 52899  98.1704 316.6861 0008832  72.8939 287.3230 14.63242262158577
MIMAN
1 52900U 22065G   25174.85423233  .00000382  00000-0  87095-4 0  9996
2 52900  98.1750 315.4185 0008889  70.8366 289.3796 14.61183632158102
GREENCUBE (IO-117)
1 53106U 22080B   25051.21822557 -.00000003  00000-0  00000 0 0  9995
2 53106  70.1434 106.3440 0008542  48.0089 312.1297  6.42557744 61200
ROBUSTA 1F (MTCUBE-2)
1 53109U 22080E   25174.13114195 -.00000003  00000-0  00000-0 0  9998
2 53109  70.1409  63.1074 0008685   7.3563 352.7223  6.42583789 68991
BLUEWALKER-3
1 53807U 22111AL  25174.60898280  .00004820  00000-0  15938-3 0  9993
2 53807  53.2323 271.0304 0008074 142.9088 217.2474 15.33223661155102
ELEKTRO-L4
1 55506U 23016A   25174.78338271 -.00000054  00000-0  00000-0 0  9991
2 55506   0.1188 241.4580 0001093 283.7448 194.7954  1.00272131  8738
SHARJAHSAT-1
1 55104U 23001CZ  25175.14260187  .00006099  00000-0  18198-3 0  9994
2 55104  97.3706 236.7315 0006469 326.4007  33.6825 15.34988144137334
METEOR M2-3
1 57166U 23091A   25175.17725565  .00000001  00000-0  19393-4 0  9998
2 57166  98.6605 231.4534 0004953 122.6684 237.4973 14.24002045103565
STRATOSAT-TK1 (RS52S)
1 57167U 23091B   25175.19218594  .00022162  00000-0  53578-3 0  9994
2 57167  97.5525 239.1669 0007251 245.4276 114.6215 15.41141062110267
RESHUCUBE-2 (RS37S)
1 57168U 23091C   25175.18893043  .00004263  00000-0  20797-3 0  9991
2 57168  97.5555 231.8215 0011753 279.8163  80.1744 15.18792892109781
RASSVET 1-1
1 57169U 23091D   25175.17380419  .00004582  00000-0  23266-3 0  9997
2 57169  97.5614 231.6917 0010080 269.2546  90.7532 15.17366568109750
RASSVET 1-2
1 57170U 23091E   25175.17398055  .00004431  00000-0  22519-3 0  9997
2 57170  97.5620 231.7438 0008913 259.0562 100.9669 15.17367261109751
RASSVET 1-3
1 57171U 23091F   25175.17355778  .00004423  00000-0  22465-3 0  9994
2 57171  97.5616 231.7120 0010911 281.4641  78.5366 15.17367629109755
UMKA-1 (RS40S)
1 57172U 23091G   25175.19937439  .00003191  00000-0  17185-3 0  9991
2 57172  97.5575 230.5057 0012721 285.1781  74.8044 15.15490820109696
SATURN (RS43S)
1 57174U 23091J   25175.15956161  .00002745  00000-0  17002-3 0  9994
2 57174  97.5582 228.0320 0012828 304.4654  55.5363 15.10564570109524
CUBEBEL-2 (EU11S)
1 57175U 23091K   25175.19050207  .00005104  00000-0  24300-3 0  9996
2 57175  97.5575 231.7325 0010447 293.2273  66.7861 15.19556875109772
SITRO-AIS-5 (ANOKHIN)
1 57176U 23091L   25175.17082509  .00005428  00000-0  25494-3 0  9999
2 57176  97.5579 232.1453 0012312 279.2173  80.7669 15.19983851109792
ZORKIY-2M
1 57177U 23091M   25175.20435010  .00003134  00000-0  17036-3 0  9998
2 57177  97.5611 230.7016 0013435 280.8268  79.1451 15.15170923109693
CUBESX-HSE-3 (RS42S)
1 57178U 23091N   25175.19413521  .00005230  00000-0  23888-3 0  9991
2 57178  97.5607 232.9878 0011822 270.6852  89.3029 15.20970277109839
PHI-DEMO
1 57181U 23091R   25175.15908897  .00002617  00000-0  15877-3 0  9991
2 57181  97.5588 228.4831 0014702 293.9788  65.9903 15.11339074109550
MONITOR-3 (RS58S)
1 57180U 23091Q   25175.17138879  .00005155  00000-0  24720-3 0  9994
2 57180  97.5601 232.1930 0012450 273.7950  86.1861 15.19288048109787
NORBY-2
1 57179U 23091P   25175.14812168  .00002607  00000-0  15237-3 0  9991
2 57179  97.5620 229.4649 0014514 283.8265  76.1351 15.12696658109591
MONITOR-4 (RS57S)
1 57182U 23091S   25175.16734556  .00005196  00000-0  24876-3 0  9996
2 57182  97.5595 232.1471 0012454 274.5487  85.4325 15.19336120109781
MONITOR-2 (RS39S)
1 57184U 23091U   25175.14374437  .00002758  00000-0  15331-3 0  9991
2 57184  97.5602 230.7072 0010715 274.5973  85.4035 15.14495862109682
SVYATOBOR-1 (RS60S)
1 57187U 23091X   25175.14126309  .00004188  00000-0  20260-3 0  9993
2 57187  97.5606 232.8665 0009470 263.9393  96.0762 15.19122968109824
VIZARD-METEO (RS38S)
1 57189U 23091Z   25175.11097347  .00007391  00000-0  30995-3 0  9996
2 57189  97.5595 234.8212 0008014 253.2322 106.8035 15.23774522109951
NANOZOND-1 (RS49S)
1 57190U 23091AA  25175.17764287  .00015138  00000-0  42929-3 0  9996
2 57190  97.5550 239.0657 0005524 236.1053 123.9666 15.36320320110250
SITRO-AIS-6 (CHIRKIN)
1 57192U 23091AC  25175.15911036  .00005191  00000-0  24464-3 0  9994
2 57192  97.5577 232.1413 0012246 278.9604  81.0244 15.19888666109796
SITRO-AIS-8 (SHCHUKIN)
1 57193U 23091AD  25175.18474523  .00005888  00000-0  26581-3 0  9998
2 57193  97.5574 232.7029 0011668 278.2485  81.7427 15.21318410109833
SITRO-AIS-7 (SHEFFER)
1 57194U 23091AE  25175.18163054  .00004814  00000-0  22781-3 0  9999
2 57194  97.5576 232.1007 0012078 279.7545  80.2326 15.19780794109797
AVION KALUGA 650
1 57195U 23091AF  25175.19936776  .00003061  00000-0  16562-3 0  9993
2 57195  97.5615 231.3626 0009931 274.0949  85.9148 15.15379186109722
SITRO-AIS-10 (KATYS)
1 57199U 23091AK  25175.19949337  .00006642  00000-0  27124-3 0  9998
2 57199  97.5588 235.1181 0007687 257.4249 102.6129 15.24713372109980
SITRO-AIS-9 (BURDAEV)
1 57201U 23091AM  25175.15340007  .00006335  00000-0  26034-3 0  9995
2 57201  97.5584 234.9805 0007668 257.8902 102.1476 15.24521062109971
UTMN-2 (RS27S)
1 57203U 23091AP  25175.16888856  .00005872  00000-0  26020-3 0  9997
2 57203  97.5595 234.1261 0008506 256.3352 103.6936 15.21983696109911
SITRO-AIS-12 (FARTUSHNY)
1 57204U 23091AQ  25175.19919214  .00006671  00000-0  27234-3 0  9990
2 57204  97.5594 235.3151 0007654 250.0091 110.0323 15.24723742109993
ARCCUBE-1 (RS25S)
1 57205U 23091AR  25175.15025920  .00029942  00000-0  60050-3 0  9998
2 57205  97.5462 241.3718 0005191 223.3280 136.7562 15.46646286110422
AHMAT-1 (RS41S)
1 57206U 23091AS  25175.19301116  .00011054  00000-0  36717-3 0  9995
2 57206  97.5552 237.4453 0006198 247.7616 112.2968 15.31369915110150
SITRO-AIS-11 (SMIRENNY)
1 57208U 23091AU  25175.15021020  .00006341  00000-0  25746-3 0  9999
2 57208  97.5592 235.3583 0007494 250.4421 109.6008 15.24929307109996
KUZGTU-1 (RS47S)
1 57217U 23091AV  25175.16060137  .00005345  00000-0  24846-3 0  9995
2 57217  97.5581 232.4889 0011865 273.0524  86.9353 15.20351770109813
STRATOSAT-TK1-A (RS45S)
1 57322U 23091AW  25175.18885676  .00139189  00000-0  10094-2 0  9990
2 57322  97.5441 244.9933 0007612 218.4690 141.6032 15.72959426108524
STRATOSAT-TK1-E (RS52SE)
1 57323U 23091AX  25175.20464577  .00013662  00000-0  41745-3 0  9992
2 57323  97.5555 237.2133 0008542 256.0665 103.9627 15.33972851108010
STRATOSAT-TK1-B (RS52SB)
1 57324U 23091AY  25175.18922297  .00136882  00000-0  10364-2 0  9990
2 57324  97.5453 244.8647 0007544 219.8988 140.1721 15.71944421108515
